STARLINK-30788          
1 58159U 23166K   23324.91667824 -.01626826  00000+0 -35703-1 0  9994
2 58159  53.0550 149.8470 0000794  78.2129 342.1794 15.46706853  4661
STARLINK-30779          
1 58160U 23166L   23324.91667824 -.01626849  00000+0 -35705-1 0  9993
2 58160  53.0550 149.8458 0000786  83.9098 337.0704 15.46705779  4826
STARLINK-30773          
1 58161U 23166M   23324.91667824 -.01628155  00000+0 -35737-1 0  9991
2 58161  53.0550 149.8445 0000864  86.4168 335.1518 15.46705082  4825
STARLINK-30816          
1 58162U 23166N   23325.16667824 -.01687681  00000+0 -38329-1 0  9999
2 58162  53.0545 148.6494 0000765  87.3318 287.2466 15.45844842  4824
STARLINK-30763          
1 58163U 23166P   23325.16667824 -.01774597  00000+0 -20604-1 0  9990
2 58163  53.0537 147.0017 0000816  81.8362  20.0399 15.64070825  4837
STARLINK-30815          
1 58164U 23166Q   23325.16667824 -.01689084  00000+0 -38365-1 0  9990
2 58164  53.0546 148.6481 0000811  89.1891 285.9762 15.45844219  4823
STARLINK-30814          
1 58165U 23166R   23325.16667824 -.01688014  00000+0 -38347-1 0  9993
2 58165  53.0545 148.6416 0000843  90.2271 287.8737 15.45837030  4816
STARLINK-30789          
1 58166U 23166S   23325.16667824 -.01689247  00000+0 -38370-1 0  9999
2 58166  53.0545 148.6455 0000924  99.9688 276.3702 15.45842625  4819
