{
	"ndm": {
		"omm": [
			{
				"header": {
					"CREATION_DATE": "",
					"ORIGINATOR": ""
				},
				"body": {
					"segment": {
						"metadata": {
							"OBJECT_NAME": "STARLINK-30788",
							"OBJECT_ID": "2023-166K",
							"CENTER_NAME": "EARTH",
							"REF_FRAME": "TEME",
							"TIME_SYSTEM": "UTC",
							"MEAN_ELEMENT_THEORY": "SGP4"
						},
						"data": {
							"meanElements": {
								"EPOCH": "2023-11-20T22:00:00.999936",
								"MEAN_MOTION": 15.46706853,
								"ECCENTRICITY": 0.0000794,
								"INCLINATION": 53.055,
								"RA_OF_ASC_NODE": 149.847,
								"ARG_OF_PERICENTER": 78.2129,
								"MEAN_ANOMALY": 342.1794
							},
							"tleParameters": {
								"EPHEMERIS_TYPE": 0,
								"CLASSIFICATION_TYPE": "U",
								"NORAD_CAT_ID": 58159,
								"ELEMENT_SET_NO": 999,
								"REV_AT_EPOCH": 466,
								"BSTAR": -0.035703,
								"MEAN_MOTION_DOT": -0.01626826,
								"MEAN_MOTION_DDOT": 0
							}
						}
					}
				}
			},
			{
				"header": {
					"CREATION_DATE": "",
					"ORIGINATOR": ""
				},
				"body": {
					"segment": {
						"metadata": {
							"OBJECT_NAME": "STARLINK-30779",
							"OBJECT_ID": "2023-166L",
							"CENTER_NAME": "EARTH",
							"REF_FRAME": "TEME",
							"TIME_SYSTEM": "UTC",
							"MEAN_ELEMENT_THEORY": "SGP4"
						},
						"data": {
							"meanElements": {
								"EPOCH": "2023-11-20T22:00:00.999936",
								"MEAN_MOTION": 15.46705779,
								"ECCENTRICITY": 0.0000786,
								"INCLINATION": 53.055,
								"RA_OF_ASC_NODE": 149.8458,
								"ARG_OF_PERICENTER": 83.9098,
								"MEAN_ANOMALY": 337.0704
							},
							"tleParameters": {
								"EPHEMERIS_TYPE": 0,
								"CLASSIFICATION_TYPE": "U",
								"NORAD_CAT_ID": 58160,
								"ELEMENT_SET_NO": 999,
								"REV_AT_EPOCH": 482,
								"BSTAR": -0.035705,
								"MEAN_MOTION_DOT": -0.01626849,
								"MEAN_MOTION_DDOT": 0
							}
						}
					}
				}
			},
			{
				"header": {
					"CREATION_DATE": "",
					"ORIGINATOR": ""
				},
				"body": {
					"segment": {
						"metadata": {
							"OBJECT_NAME": "STARLINK-30773",
							"OBJECT_ID": "2023-166M",
							"CENTER_NAME": "EARTH",
							"REF_FRAME": "TEME",
							"TIME_SYSTEM": "UTC",
							"MEAN_ELEMENT_THEORY": "SGP4"
						},
						"data": {
							"meanElements": {
								"EPOCH": "2023-11-20T22:00:00.999936",
								"MEAN_MOTION": 15.46705082,
								"ECCENTRICITY": 0.0000864,
								"INCLINATION": 53.055,
								"RA_OF_ASC_NODE": 149.8445,
								"ARG_OF_PERICENTER": 86.4168,
								"MEAN_ANOMALY": 335.1518
							},
							"tleParameters": {
								"EPHEMERIS_TYPE": 0,
								"CLASSIFICATION_TYPE": "U",
								"NORAD_CAT_ID": 58161,
								"ELEMENT_SET_NO": 999,
								"REV_AT_EPOCH": 482,
								"BSTAR": -0.035737,
								"MEAN_MOTION_DOT": -0.01628155,
								"MEAN_MOTION_DDOT": 0
							}
						}
					}
				}
			},
			{
				"header": {
					"CREATION_DATE": "",
					"ORIGINATOR": ""
				},
				"body": {
					"segment": {
						"metadata": {
							"OBJECT_NAME": "STARLINK-30816",
							"OBJECT_ID": "2023-166N",
							"CENTER_NAME": "EARTH",
							"REF_FRAME": "TEME",
							"TIME_SYSTEM": "UTC",
							"MEAN_ELEMENT_THEORY": "SGP4"
						},
						"data": {
							"meanElements": {
								"EPOCH": "2023-11-21T04:00:00.999936",
								"MEAN_MOTION": 15.45844842,
								"ECCENTRICITY": 0.0000765,
								"INCLINATION": 53.0545,
								"RA_OF_ASC_NODE": 148.6494,
								"ARG_OF_PERICENTER": 87.3318,
								"MEAN_ANOMALY": 287.2466
							},
							"tleParameters": {
								"EPHEMERIS_TYPE": 0,
								"CLASSIFICATION_TYPE": "U",
								"NORAD_CAT_ID": 58162,
								"ELEMENT_SET_NO": 999,
								"REV_AT_EPOCH": 482,
								"BSTAR": -0.038329,
								"MEAN_MOTION_DOT": -0.01687681,
								"MEAN_MOTION_DDOT": 0
							}
						}
					}
				}
			},
			{
				"header": {
					"CREATION_DATE": "",
					"ORIGINATOR": ""
				},
				"body": {
					"segment": {
						"metadata": {
							"OBJECT_NAME": "STARLINK-30763",
							"OBJECT_ID": "2023-166P",
							"CENTER_NAME": "EARTH",
							"REF_FRAME": "TEME",
							"TIME_SYSTEM": "UTC",
							"MEAN_ELEMENT_THEORY": "SGP4"
						},
						"data": {
							"meanElements": {
								"EPOCH": "2023-11-21T04:00:00.999936",
								"MEAN_MOTION": 15.64070825,
								"ECCENTRICITY": 0.0000816,
								"INCLINATION": 53.0537,
								"RA_OF_ASC_NODE": 147.0017,
								"ARG_OF_PERICENTER": 81.8362,
								"MEAN_ANOMALY": 20.0399
							},
							"tleParameters": {
								"EPHEMERIS_TYPE": 0,
								"CLASSIFICATION_TYPE": "U",
								"NORAD_CAT_ID": 58163,
								"ELEMENT_SET_NO": 999,
								"REV_AT_EPOCH": 483,
								"BSTAR": -0.020604,
								"MEAN_MOTION_DOT": -0.01774597,
								"MEAN_MOTION_DDOT": 0
							}
						}
					}
				}
			},
			{
				"header": {
					"CREATION_DATE": "",
					"ORIGINATOR": ""
				},
				"body": {
					"segment": {
						"metadata": {
							"OBJECT_NAME": "STARLINK-30815",
							"OBJECT_ID": "2023-166Q",
							"CENTER_NAME": "EARTH",
							"REF_FRAME": "TEME",
							"TIME_SYSTEM": "UTC",
							"MEAN_ELEMENT_THEORY": "SGP4"
						},
						"data": {
							"meanElements": {
								"EPOCH": "2023-11-21T04:00:00.999936",
								"MEAN_MOTION": 15.45844219,
								"ECCENTRICITY": 0.0000811,
								"INCLINATION": 53.0546,
								"RA_OF_ASC_NODE": 148.6481,
								"ARG_OF_PERICENTER": 89.1891,
								"MEAN_ANOMALY": 285.9762
							},
							"tleParameters": {
								"EPHEMERIS_TYPE": 0,
								"CLASSIFICATION_TYPE": "U",
								"NORAD_CAT_ID": 58164,
								"ELEMENT_SET_NO": 999,
								"REV_AT_EPOCH": 482,
								"BSTAR": -0.038365,
								"MEAN_MOTION_DOT": -0.01689084,
								"MEAN_MOTION_DDOT": 0
							}
						}
					}
				}
			},
			{
				"header": {
					"CREATION_DATE": "",
					"ORIGINATOR": ""
				},
				"body": {
					"segment": {
						"metadata": {
							"OBJECT_NAME": "STARLINK-30814",
							"OBJECT_ID": "2023-166R",
							"CENTER_NAME": "EARTH",
							"REF_FRAME": "TEME",
							"TIME_SYSTEM": "UTC",
							"MEAN_ELEMENT_THEORY": "SGP4"
						},
						"data": {
							"meanElements": {
								"EPOCH": "2023-11-21T04:00:00.999936",
								"MEAN_MOTION": 15.4583703,
								"ECCENTRICITY": 0.0000843,
								"INCLINATION": 53.0545,
								"RA_OF_ASC_NODE": 148.6416,
								"ARG_OF_PERICENTER": 90.2271,
								"MEAN_ANOMALY": 287.8737
							},
							"tleParameters": {
								"EPHEMERIS_TYPE": 0,
								"CLASSIFICATION_TYPE": "U",
								"NORAD_CAT_ID": 58165,
								"ELEMENT_SET_NO": 999,
								"REV_AT_EPOCH": 481,
								"BSTAR": -0.038347,
								"MEAN_MOTION_DOT": -0.01688014,
								"MEAN_MOTION_DDOT": 0
							}
						}
					}
				}
			},
			{
				"header": {
					"CREATION_DATE": "",
					"ORIGINATOR": ""
				},
				"body": {
					"segment": {
						"metadata": {
							"OBJECT_NAME": "STARLINK-30789",
							"OBJECT_ID": "2023-166S",
							"CENTER_NAME": "EARTH",
							"REF_FRAME": "TEME",
							"TIME_SYSTEM": "UTC",
							"MEAN_ELEMENT_THEORY": "SGP4"
						},
						"data": {
							"meanElements": {
								"EPOCH": "2023-11-21T04:00:00.999936",
								"MEAN_MOTION": 15.45842625,
								"ECCENTRICITY": 0.0000924,
								"INCLINATION": 53.0545,
								"RA_OF_ASC_NODE": 148.6455,
								"ARG_OF_PERICENTER": 99.9688,
								"MEAN_ANOMALY": 276.3702
							},
							"tleParameters": {
								"EPHEMERIS_TYPE": 0,
								"CLASSIFICATION_TYPE": "U",
								"NORAD_CAT_ID": 58166,
								"ELEMENT_SET_NO": 999,
								"REV_AT_EPOCH": 481,
								"BSTAR": -0.03837,
								"MEAN_MOTION_DOT": -0.01689247,
								"MEAN_MOTION_DDOT": 0
							}
						}
					}
				}
			}
		]
	}
}